OBJECT_NAME,OBJECT_ID,EPOCH,MEAN_MOTION,ECCENTRICITY,INCLINATION,RA_OF_ASC_NODE,ARG_OF_PERICENTER,MEAN_ANOMALY,EPHEMERIS_TYPE,CLASSIFICATION_TYPE,NORAD_CAT_ID,ELEMENT_SET_NO,REV_AT_EPOCH,BSTAR,MEAN_MOTION_DOT,MEAN_MOTION_DDOT
STARLINK-37587,2026-154U,2026-07-16T04:00:01.998720,15.82475185,.0001259,53.1591,287.9259,77.1590,132.4832,0,U,69837,999,279,-.93835E-2,-.1725775E-1,0
STARLINK-37590,2026-154V,2026-07-16T04:00:01.998720,15.82710660,.0000888,53.1590,287.9180,90.8979,122.7939,0,U,69838,999,266,-.10197E-1,-.1913908E-1,0
STARLINK-37589,2026-154W,2026-07-16T04:00:01.998720,15.82680641,.0001187,53.1589,287.9089,101.7701,116.0646,0,U,69839,999,279,-.91385E-2,-.1701135E-1,0
STARLINK-37487,2026-154X,2026-07-16T04:00:01.998720,15.91202412,.0000708,53.1569,287.5366,83.8751,312.7203,0,U,69840,999,279,-.52126E-2,-.1690863E-1,.79095E-3
STARLINK-37433,2026-154Y,2026-07-16T04:00:01.998720,15.91492720,.0000741,53.1569,287.5201,84.0152,320.4944,0,U,69841,999,292,-.71329E-2,-.2338823E-1,.1454E-2
STARLINK-37588,2026-154Z,2026-07-16T04:00:01.998720,15.91061440,.0000703,53.1568,287.5102,87.0599,322.1025,0,U,69842,999,282,-.54722E-2,-.1761306E-1,.85152E-3
STARLINK-37579,2026-154AA,2026-07-16T04:00:01.998720,15.90874593,.0000735,53.1567,287.4927,82.2700,335.1545,0,U,69843,999,282,-.57118E-2,-.1820107E-1,.9031E-3
STARLINK-37584,2026-154AB,2026-07-16T04:00:01.998720,15.90844341,.0000733,53.1569,287.4814,86.9123,335.9092,0,U,69844,999,282,-.57781E-2,-.183812E-1,.91942E-3
STARLINK-37606,2026-154AC,2026-07-16T04:00:01.998720,15.90766873,.0000789,53.1567,287.4680,86.7013,342.4028,0,U,69845,999,282,-.59026E-2,-.1869893E-1,.94834E-3
STARLINK-37603,2026-154AD,2026-07-16T04:00:01.998720,15.90636380,.0000922,53.1568,287.4525,82.0655,354.3443,0,U,69846,999,282,-.61911E-2,-.170987E-1,0
STARLINK-37595,2026-154AE,2026-07-16T04:00:01.998720,15.90630717,.0000816,53.1564,287.4409,80.5458,1.2137,0,U,69847,999,282,-.65168E-2,-.1786629E-1,0
QIANFAN-219,2026-155A,2026-07-16T04:56:39.039360,14.26454598,.0030571,89.0065,60.8315,219.7742,140.1211,0,U,69848,999,152,.21102E-4,.65E-6,0
QIANFAN-220,2026-155B,2026-07-16T03:28:48.162432,14.21022852,.0030036,89.0065,60.8406,220.3727,139.5234,0,U,69849,999,151,.23179E-4,.65E-6,0
QIANFAN-221,2026-155C,2026-07-16T03:14:41.269632,14.26647015,.0030375,89.0065,60.8393,220.4506,139.4430,0,U,69850,999,151,.9956E-4,.256E-5,0
QIANFAN-222,2026-155D,2026-07-16T03:26:23.866656,14.22184744,.0029382,89.0066,60.8406,220.4768,139.4238,0,U,69851,999,151,.75332E-4,.182E-5,0
QIANFAN-223,2026-155E,2026-07-15T23:58:32.017152,14.18596986,.0030478,89.0058,60.8564,230.7907,129.0576,0,U,69852,999,149,-.9998E+0,-.1930248E-1,0
QIANFAN-224,2026-155F,2026-07-16T03:21:15.859296,14.23568189,.0030006,89.0059,60.8394,219.9719,139.9264,0,U,69853,999,151,.10868E-3,.263E-5,0
QIANFAN-225,2026-155G,2026-07-15T23:54:00.133632,14.19748844,.0033066,89.0058,60.8555,224.9130,134.9384,0,U,69854,999,149,-.10184E+1,-.2004977E-1,0
QIANFAN-226,2026-155H,2026-07-15T15:26:23.400960,14.22513031,.00253289,89.0073,60.8921,219.4211,140.5138,0,U,69855,999,144,-.94247573E+0,-.1954139E-1,0
QIANFAN-227,2026-155J,2026-07-15T23:49:27.036192,14.21737402,.0029159,89.0059,60.8548,217.8348,142.0794,0,U,69856,999,149,-.81647E+0,-.1669366E-1,0
QIANFAN-228,2026-155K,2026-07-16T03:14:06.601632,14.26684103,.0030473,89.0065,60.8393,220.3370,139.5564,0,U,69857,999,151,.83916E-4,.218E-5,0
QIANFAN-229,2026-155L,2026-07-16T03:14:02.254848,14.26689021,.0030509,89.0066,60.8391,220.0305,139.8641,0,U,69858,999,151,.64346E-5,.3E-6,0
QIANFAN-230,2026-155M,2026-07-16T05:09:38.638656,14.21841895,.0029127,89.0062,60.8325,220.4822,139.4203,0,U,69859,999,152,.85399E-4,.203E-5,0
QIANFAN-231,2026-155N,2026-07-16T03:18:01.963008,14.26096158,.0030581,89.0066,60.8398,219.3963,140.5006,0,U,69860,999,151,.12061E-3,.304E-5,0
QIANFAN-232,2026-155P,2026-07-16T03:13:55.863840,14.26735918,.0030403,89.0065,60.8391,220.6643,139.2280,0,U,69861,999,151,.10339E-3,.266E-5,0
QIANFAN-233,2026-155Q,2026-07-16T03:13:46.944768,14.26751728,.0030345,89.0066,60.8392,220.4946,139.3990,0,U,69862,999,151,.84347E-4,.219E-5,0
QIANFAN-234,2026-155R,2026-07-16T03:13:42.779424,14.26758126,.0030309,89.0066,60.8393,220.5688,139.3247,0,U,69863,999,151,.21765E-4,.67E-6,0
QIANFAN-235,2026-155S,2026-07-16T03:13:39.036576,14.26764112,.0030257,89.0065,60.8391,220.5750,139.3189,0,U,69864,999,151,.21402E-4,.67E-6,0
QIANFAN-236,2026-155T,2026-07-16T03:13:35.806944,14.26769361,.0030238,89.0066,60.8393,220.6062,139.2877,0,U,69865,999,151,.8924E-4,.231E-5,0
QIANFAN-237,2026-155U,2026-07-16T03:13:30.415584,14.26777652,.0030208,89.0066,60.8393,220.6383,139.2556,0,U,69866,999,150,.96184E-4,.248E-5,0
