STARLINK-37587          
1 69837U 26154U   26197.16668980 -.01725775  00000+0 -93835-2 0  9995
2 69837  53.1591 287.9259 0001259  77.1590 132.4832 15.82475185  2794
STARLINK-37590          
1 69838U 26154V   26197.16668980 -.01913908  00000+0 -10197-1 0  9992
2 69838  53.1590 287.9180 0000888  90.8979 122.7939 15.82710660  2663
STARLINK-37589          
1 69839U 26154W   26197.16668980 -.01701135  00000+0 -91385-2 0  9999
2 69839  53.1589 287.9089 0001187 101.7701 116.0646 15.82680641  2798
STARLINK-37487          
1 69840U 26154X   26197.16668980 -.01690863  79095-3 -52126-2 0  9990
2 69840  53.1569 287.5366 0000708  83.8751 312.7203 15.91202412  2795
STARLINK-37433          
1 69841U 26154Y   26197.16668980 -.02338823  14540-2 -71329-2 0  9996
2 69841  53.1569 287.5201 0000741  84.0152 320.4944 15.91492720  2925
STARLINK-37588          
1 69842U 26154Z   26197.16668980 -.01761306  85152-3 -54722-2 0  9998
2 69842  53.1568 287.5102 0000703  87.0599 322.1025 15.91061440  2820
STARLINK-37579          
1 69843U 26154AA  26197.16668980 -.01820107  90310-3 -57118-2 0  9998
2 69843  53.1567 287.4927 0000735  82.2700 335.1545 15.90874593  2821
STARLINK-37584          
1 69844U 26154AB  26197.16668980 -.01838120  91942-3 -57781-2 0  9991
2 69844  53.1569 287.4814 0000733  86.9123 335.9092 15.90844341  2820
STARLINK-37606          
1 69845U 26154AC  26197.16668980 -.01869893  94834-3 -59026-2 0  9990
2 69845  53.1567 287.4680 0000789  86.7013 342.4028 15.90766873  2822
STARLINK-37603          
1 69846U 26154AD  26197.16668980 -.01709870  00000+0 -61911-2 0  9993
2 69846  53.1568 287.4525 0000922  82.0655 354.3443 15.90636380  2824
STARLINK-37595          
1 69847U 26154AE  26197.16668980 -.01786629  00000+0 -65168-2 0  9999
2 69847  53.1564 287.4409 0000816  80.5458   1.2137 15.90630717  2824
QIANFAN-219             
1 69848U 26155A   26197.20600740  .00000065  00000+0  21102-4 0  9998
2 69848  89.0065  60.8315 0030571 219.7742 140.1211 14.26454598  1522
QIANFAN-220             
1 69849U 26155B   26197.14500188  .00000065  00000+0  23179-4 0  9993
2 69849  89.0065  60.8406 0030036 220.3727 139.5234 14.21022852  1516
QIANFAN-221             
1 69850U 26155C   26197.13519988  .00000256  00000+0  99560-4 0  9991
2 69850  89.0065  60.8393 0030375 220.4506 139.4430 14.26647015  1511
QIANFAN-222             
1 69851U 26155D   26197.14333179  .00000182  00000+0  75332-4 0  9998
2 69851  89.0066  60.8406 0029382 220.4768 139.4238 14.22184744  1511
QIANFAN-223             
1 69852U 26155E   26196.99898168 -.01930248  00000+0 -99980+0 0  9993
2 69852  89.0058  60.8564 0030478 230.7907 129.0576 14.18596986  1492
QIANFAN-224             
1 69853U 26155F   26197.13976689  .00000263  00000+0  10868-3 0  9990
2 69853  89.0059  60.8394 0030006 219.9719 139.9264 14.23568189  1519
QIANFAN-225             
1 69854U 26155G   26196.99583488 -.02004977  00000+0 -10184+1 0  9993
2 69854  89.0058  60.8555 0033066 224.9130 134.9384 14.19748844  1498
QIANFAN-226             
1 69855U 26155H   26196.64332640 -.01954139  00000+0 -94248+0 0  9993
2 69855  89.0073  60.8921 0025328 219.4211 140.5138 14.22513031  1441
QIANFAN-227             
1 69856U 26155J   26196.99267403 -.01669366  00000+0 -81647+0 0  9990
2 69856  89.0059  60.8548 0029159 217.8348 142.0794 14.21737402  1499
QIANFAN-228             
1 69857U 26155K   26197.13479863  .00000218  00000+0  83916-4 0  9991
2 69857  89.0065  60.8393 0030473 220.3370 139.5564 14.26684103  1513
QIANFAN-229             
1 69858U 26155L   26197.13474832  .00000030  00000+0  64346-5 0  9992
2 69858  89.0066  60.8391 0030509 220.0305 139.8641 14.26689021  1511
QIANFAN-230             
1 69859U 26155M   26197.21503054  .00000203  00000+0  85399-4 0  9993
2 69859  89.0062  60.8325 0029127 220.4822 139.4203 14.21841895  1522
QIANFAN-231             
1 69860U 26155N   26197.13752272  .00000304  00000+0  12061-3 0  9991
2 69860  89.0066  60.8398 0030581 219.3963 140.5006 14.26096158  1519
QIANFAN-232             
1 69861U 26155P   26197.13467435  .00000266  00000+0  10339-3 0  9999
2 69861  89.0065  60.8391 0030403 220.6643 139.2280 14.26735918  1518
QIANFAN-233             
1 69862U 26155Q   26197.13457112  .00000219  00000+0  84347-4 0  9990
2 69862  89.0066  60.8392 0030345 220.4946 139.3990 14.26751728  1516
QIANFAN-234             
1 69863U 26155R   26197.13452291  .00000067  00000+0  21765-4 0  9990
2 69863  89.0066  60.8393 0030309 220.5688 139.3247 14.26758126  1516
QIANFAN-235             
1 69864U 26155S   26197.13447959  .00000067  00000+0  21402-4 0  9994
2 69864  89.0065  60.8391 0030257 220.5750 139.3189 14.26764112  1513
QIANFAN-236             
1 69865U 26155T   26197.13444221  .00000231  00000+0  89240-4 0  9991
2 69865  89.0066  60.8393 0030238 220.6062 139.2877 14.26769361  1517
QIANFAN-237             
1 69866U 26155U   26197.13437981  .00000248  00000+0  96184-4 0  9990
2 69866  89.0066  60.8393 0030208 220.6383 139.2556 14.26777652  1506
